STARLINK-2022           
1 47643U 21012Z   23313.18986845 -.00000799  00000+0 -34719-4 0  9995
2 47643  53.0545 274.1507 0001298  90.1155 269.9982 15.06416233151402
